[{"OBJECT_NAME":"STARLINK-36783","OBJECT_ID":"2026-034Z","EPOCH":"2026-03-18T10:31:40.343232","MEAN_MOTION":15.80926303,"ECCENTRICITY":0.00011866,"INCLINATION":53.1601,"RA_OF_ASC_NODE":167.305,"ARG_OF_PERICENTER":101.1084,"MEAN_ANOMALY":259.0073,"EPHEMERIS_TYPE":0,"CLASSIFICATION_TYPE":"U","NORAD_CAT_ID":67873,"ELEMENT_SET_NO":999,"REV_AT_EPOCH":532,"BSTAR":0.00080554677,"MEAN_MOTION_DOT":0.00161697,"MEAN_MOTION_DDOT":0},{"OBJECT_NAME":"STARLINK-36730","OBJECT_ID":"2026-034AA","EPOCH":"2026-03-18T15:03:42.136992","MEAN_MOTION":15.80930516,"ECCENTRICITY":9.152e-5,"INCLINATION":53.1593,"RA_OF_ASC_NODE":166.3498,"ARG_OF_PERICENTER":88.0025,"MEAN_ANOMALY":272.1103,"EPHEMERIS_TYPE":0,"CLASSIFICATION_TYPE":"U","NORAD_CAT_ID":67874,"ELEMENT_SET_NO":999,"REV_AT_EPOCH":535,"BSTAR":0.0011807088,"MEAN_MOTION_DOT":0.00239549,"MEAN_MOTION_DDOT":0},{"OBJECT_NAME":"STARLINK-36727","OBJECT_ID":"2026-034AB","EPOCH":"2026-03-18T10:29:30.886656","MEAN_MOTION":15.81186299,"ECCENTRICITY":9.475e-5,"INCLINATION":53.1599,"RA_OF_ASC_NODE":167.2971,"ARG_OF_PERICENTER":181.3717,"MEAN_ANOMALY":178.7303,"EPHEMERIS_TYPE":0,"CLASSIFICATION_TYPE":"U","NORAD_CAT_ID":67875,"ELEMENT_SET_NO":999,"REV_AT_EPOCH":532,"BSTAR":0.0024660862,"MEAN_MOTION_DOT":0.00524302,"MEAN_MOTION_DDOT":0},{"OBJECT_NAME":"STARLINK-36743","OBJECT_ID":"2026-034AC","EPOCH":"2026-03-18T10:28:26.012352","MEAN_MOTION":15.81160867,"ECCENTRICITY":3.578e-5,"INCLINATION":53.1603,"RA_OF_ASC_NODE":167.2902,"ARG_OF_PERICENTER":189.6177,"MEAN_ANOMALY":170.484,"EPHEMERIS_TYPE":0,"CLASSIFICATION_TYPE":"U","NORAD_CAT_ID":67876,"ELEMENT_SET_NO":999,"REV_AT_EPOCH":532,"BSTAR":0.0018555237,"MEAN_MOTION_DOT":0.00387584,"MEAN_MOTION_DDOT":0},{"OBJECT_NAME":"STARLINK-36784","OBJECT_ID":"2026-034AD","EPOCH":"2026-03-18T10:27:27.504864","MEAN_MOTION":15.8096209,"ECCENTRICITY":0.00032849,"INCLINATION":53.1607,"RA_OF_ASC_NODE":167.2866,"ARG_OF_PERICENTER":254.0237,"MEAN_ANOMALY":106.0424,"EPHEMERIS_TYPE":0,"CLASSIFICATION_TYPE":"U","NORAD_CAT_ID":67877,"ELEMENT_SET_NO":999,"REV_AT_EPOCH":532,"BSTAR":0.0016590092,"MEAN_MOTION_DOT":0.00341439,"MEAN_MOTION_DDOT":0},{"OBJECT_NAME":"STARLINK-36689","OBJECT_ID":"2026-034AE","EPOCH":"2026-03-18T10:26:16.220544","MEAN_MOTION":15.81076573,"ECCENTRICITY":0.00032399,"INCLINATION":53.1595,"RA_OF_ASC_NODE":167.2801,"ARG_OF_PERICENTER":168.6977,"MEAN_ANOMALY":191.412,"EPHEMERIS_TYPE":0,"CLASSIFICATION_TYPE":"U","NORAD_CAT_ID":67878,"ELEMENT_SET_NO":999,"REV_AT_EPOCH":532,"BSTAR":0.0016031291,"MEAN_MOTION_DOT":0.00331265,"MEAN_MOTION_DDOT":0},{"OBJECT_NAME":"STARLINK-36818","OBJECT_ID":"2026-035A","EPOCH":"2026-03-18T12:41:31.446816","MEAN_MOTION":15.75252497,"ECCENTRICITY":0.00023216,"INCLINATION":97.2881,"RA_OF_ASC_NODE":10.343,"ARG_OF_PERICENTER":83.359,"MEAN_ANOMALY":276.794,"EPHEMERIS_TYPE":0,"CLASSIFICATION_TYPE":"U","NORAD_CAT_ID":67879,"ELEMENT_SET_NO":999,"REV_AT_EPOCH":523,"BSTAR":0.001459627,"MEAN_MOTION_DOT":0.00224003,"MEAN_MOTION_DDOT":0},{"OBJECT_NAME":"STARLINK-36821","OBJECT_ID":"2026-035B","EPOCH":"2026-03-18T14:00:01.000224","MEAN_MOTION":15.7521649,"ECCENTRICITY":0.00019182,"INCLINATION":97.2861,"RA_OF_ASC_NODE":10.4077,"ARG_OF_PERICENTER":104.3802,"MEAN_ANOMALY":220.6718,"EPHEMERIS_TYPE":0,"CLASSIFICATION_TYPE":"U","NORAD_CAT_ID":67880,"ELEMENT_SET_NO":999,"REV_AT_EPOCH":518,"BSTAR":-0.00078105998,"MEAN_MOTION_DOT":-0.00115216,"MEAN_MOTION_DDOT":0},{"OBJECT_NAME":"STARLINK-36808","OBJECT_ID":"2026-035C","EPOCH":"2026-03-18T07:45:06.335136","MEAN_MOTION":15.80830058,"ECCENTRICITY":0.00024268,"INCLINATION":97.2876,"RA_OF_ASC_NODE":10.16,"ARG_OF_PERICENTER":182.7739,"MEAN_ANOMALY":177.3516,"EPHEMERIS_TYPE":0,"CLASSIFICATION_TYPE":"U","NORAD_CAT_ID":67881,"ELEMENT_SET_NO":999,"REV_AT_EPOCH":520,"BSTAR":0.0011826295,"MEAN_MOTION_DOT":0.00232695,"MEAN_MOTION_DDOT":0},{"OBJECT_NAME":"STARLINK-36817","OBJECT_ID":"2026-035D","EPOCH":"2026-03-18T07:41:52.942560","MEAN_MOTION":15.80864496,"ECCENTRICITY":0.00029638,"INCLINATION":97.2879,"RA_OF_ASC_NODE":10.1617,"ARG_OF_PERICENTER":83.3955,"MEAN_ANOMALY":276.765,"EPHEMERIS_TYPE":0,"CLASSIFICATION_TYPE":"U","NORAD_CAT_ID":67882,"ELEMENT_SET_NO":999,"REV_AT_EPOCH":520,"BSTAR":0.001058563,"MEAN_MOTION_DOT":0.00208017,"MEAN_MOTION_DDOT":0},{"OBJECT_NAME":"STARLINK-36856","OBJECT_ID":"2026-035E","EPOCH":"2026-03-18T13:47:41.729856","MEAN_MOTION":15.80275066,"ECCENTRICITY":0.0002189,"INCLINATION":97.2872,"RA_OF_ASC_NODE":10.4292,"ARG_OF_PERICENTER":213.9647,"MEAN_ANOMALY":146.1482,"EPHEMERIS_TYPE":0,"CLASSIFICATION_TYPE":"U","NORAD_CAT_ID":67883,"ELEMENT_SET_NO":999,"REV_AT_EPOCH":524,"BSTAR":-0.0015314145,"MEAN_MOTION_DOT":-0.00277478,"MEAN_MOTION_DDOT":0},{"OBJECT_NAME":"STARLINK-36842","OBJECT_ID":"2026-035F","EPOCH":"2026-03-18T14:00:01.000224","MEAN_MOTION":15.75196933,"ECCENTRICITY":0.00015796,"INCLINATION":97.2864,"RA_OF_ASC_NODE":10.4127,"ARG_OF_PERICENTER":103.795,"MEAN_ANOMALY":237.2611,"EPHEMERIS_TYPE":0,"CLASSIFICATION_TYPE":"U","NORAD_CAT_ID":67884,"ELEMENT_SET_NO":999,"REV_AT_EPOCH":518,"BSTAR":-0.00052520241,"MEAN_MOTION_DOT":-0.00077784,"MEAN_MOTION_DDOT":0},{"OBJECT_NAME":"STARLINK-36826","OBJECT_ID":"2026-035G","EPOCH":"2026-03-18T14:00:01.000224","MEAN_MOTION":15.75203287,"ECCENTRICITY":0.00011883,"INCLINATION":97.2859,"RA_OF_ASC_NODE":10.4347,"ARG_OF_PERICENTER":90.4128,"MEAN_ANOMALY":300.6411,"EPHEMERIS_TYPE":0,"CLASSIFICATION_TYPE":"U","NORAD_CAT_ID":67885,"ELEMENT_SET_NO":999,"REV_AT_EPOCH":518,"BSTAR":-0.00036749413,"MEAN_MOTION_DOT":-0.00054625,"MEAN_MOTION_DDOT":0},{"OBJECT_NAME":"STARLINK-36390","OBJECT_ID":"2026-035H","EPOCH":"2026-03-18T14:00:01.000224","MEAN_MOTION":15.75214562,"ECCENTRICITY":0.00015475,"INCLINATION":97.2864,"RA_OF_ASC_NODE":10.4185,"ARG_OF_PERICENTER":108.9921,"MEAN_ANOMALY":244.0589,"EPHEMERIS_TYPE":0,"CLASSIFICATION_TYPE":"U","NORAD_CAT_ID":67886,"ELEMENT_SET_NO":999,"REV_AT_EPOCH":523,"BSTAR":-0.00056499753,"MEAN_MOTION_DOT":-0.00083674,"MEAN_MOTION_DDOT":0},{"OBJECT_NAME":"STARLINK-36368","OBJECT_ID":"2026-035J","EPOCH":"2026-03-18T09:08:39.915456","MEAN_MOTION":15.80860046,"ECCENTRICITY":0.00019111,"INCLINATION":97.2875,"RA_OF_ASC_NODE":10.2317,"ARG_OF_PERICENTER":88.8897,"MEAN_ANOMALY":271.259,"EPHEMERIS_TYPE":0,"CLASSIFICATION_TYPE":"U","NORAD_CAT_ID":67887,"ELEMENT_SET_NO":999,"REV_AT_EPOCH":521,"BSTAR":-0.00042161661,"MEAN_MOTION_DOT":-0.00080332,"MEAN_MOTION_DDOT":0},{"OBJECT_NAME":"STARLINK-36801","OBJECT_ID":"2026-035K","EPOCH":"2026-03-18T09:07:36.826176","MEAN_MOTION":15.80874598,"ECCENTRICITY":0.00017444,"INCLINATION":97.288,"RA_OF_ASC_NODE":10.2327,"ARG_OF_PERICENTER":108.515,"MEAN_ANOMALY":251.6308,"EPHEMERIS_TYPE":0,"CLASSIFICATION_TYPE":"U","NORAD_CAT_ID":67888,"ELEMENT_SET_NO":999,"REV_AT_EPOCH":521,"BSTAR":0.00073970923,"MEAN_MOTION_DOT":0.00144303,"MEAN_MOTION_DDOT":0},{"OBJECT_NAME":"STARLINK-36372","OBJECT_ID":"2026-035L","EPOCH":"2026-03-18T13:39:10.858752","MEAN_MOTION":15.79919283,"ECCENTRICITY":0.00036915,"INCLINATION":97.2892,"RA_OF_ASC_NODE":10.4342,"ARG_OF_PERICENTER":153.5303,"MEAN_ANOMALY":206.6154,"EPHEMERIS_TYPE":0,"CLASSIFICATION_TYPE":"U","NORAD_CAT_ID":67889,"ELEMENT_SET_NO":999,"REV_AT_EPOCH":524,"BSTAR":-0.0014736553,"MEAN_MOTION_DOT":-0.00263277,"MEAN_MOTION_DDOT":0},{"OBJECT_NAME":"STARLINK-36363","OBJECT_ID":"2026-035M","EPOCH":"2026-03-18T14:00:01.000224","MEAN_MOTION":15.75201644,"ECCENTRICITY":0.00015202,"INCLINATION":97.2865,"RA_OF_ASC_NODE":10.4269,"ARG_OF_PERICENTER":96.8291,"MEAN_ANOMALY":276.2206,"EPHEMERIS_TYPE":0,"CLASSIFICATION_TYPE":"U","NORAD_CAT_ID":67890,"ELEMENT_SET_NO":999,"REV_AT_EPOCH":518,"BSTAR":-0.00038510684,"MEAN_MOTION_DOT":-0.00057218,"MEAN_MOTION_DDOT":0},{"OBJECT_NAME":"STARLINK-36816","OBJECT_ID":"2026-035N","EPOCH":"2026-03-18T08:51:23.219136","MEAN_MOTION":15.80844156,"ECCENTRICITY":0.00020579,"INCLINATION":97.2911,"RA_OF_ASC_NODE":10.2443,"ARG_OF_PERICENTER":82.4763,"MEAN_ANOMALY":277.6739,"EPHEMERIS_TYPE":0,"CLASSIFICATION_TYPE":"U","NORAD_CAT_ID":67891,"ELEMENT_SET_NO":999,"REV_AT_EPOCH":521,"BSTAR":0.00054027773,"MEAN_MOTION_DOT":0.00104738,"MEAN_MOTION_DDOT":0},{"OBJECT_NAME":"STARLINK-36813","OBJECT_ID":"2026-035P","EPOCH":"2026-03-18T13:31:20.514432","MEAN_MOTION":15.80887052,"ECCENTRICITY":0.00024475,"INCLINATION":97.2912,"RA_OF_ASC_NODE":10.4374,"ARG_OF_PERICENTER":82.2559,"MEAN_ANOMALY":277.8987,"EPHEMERIS_TYPE":0,"CLASSIFICATION_TYPE":"U","NORAD_CAT_ID":67892,"ELEMENT_SET_NO":999,"REV_AT_EPOCH":524,"BSTAR":0.0013896594,"MEAN_MOTION_DOT":0.00275527,"MEAN_MOTION_DDOT":0},{"OBJECT_NAME":"STARLINK-36803","OBJECT_ID":"2026-035Q","EPOCH":"2026-03-18T09:04:21.830016","MEAN_MOTION":15.80885454,"ECCENTRICITY":0.00016919,"INCLINATION":97.2891,"RA_OF_ASC_NODE":10.2342,"ARG_OF_PERICENTER":114.1629,"MEAN_ANOMALY":245.9816,"EPHEMERIS_TYPE":0,"CLASSIFICATION_TYPE":"U","NORAD_CAT_ID":67893,"ELEMENT_SET_NO":999,"REV_AT_EPOCH":521,"BSTAR":0.00090418826,"MEAN_MOTION_DOT":0.00177178,"MEAN_MOTION_DDOT":0},{"OBJECT_NAME":"STARLINK-36846","OBJECT_ID":"2026-035R","EPOCH":"2026-03-18T07:53:22.493184","MEAN_MOTION":15.75183807,"ECCENTRICITY":0.00042328,"INCLINATION":97.2863,"RA_OF_ASC_NODE":10.1499,"ARG_OF_PERICENTER":72.0606,"MEAN_ANOMALY":288.1121,"EPHEMERIS_TYPE":0,"CLASSIFICATION_TYPE":"U","NORAD_CAT_ID":67894,"ELEMENT_SET_NO":999,"REV_AT_EPOCH":520,"BSTAR":0.0013580503,"MEAN_MOTION_DOT":0.00207437,"MEAN_MOTION_DDOT":0},{"OBJECT_NAME":"STARLINK-36866","OBJECT_ID":"2026-035S","EPOCH":"2026-03-18T14:00:01.000224","MEAN_MOTION":15.75207026,"ECCENTRICITY":0.0001486,"INCLINATION":97.2869,"RA_OF_ASC_NODE":10.4387,"ARG_OF_PERICENTER":106.6432,"MEAN_ANOMALY":300.3971,"EPHEMERIS_TYPE":0,"CLASSIFICATION_TYPE":"U","NORAD_CAT_ID":67895,"ELEMENT_SET_NO":999,"REV_AT_EPOCH":518,"BSTAR":-0.00039588925,"MEAN_MOTION_DOT":-0.00058819,"MEAN_MOTION_DDOT":0}]
